CCSDS_OMM_VERS = 2.0
CREATION_DATE  = 
ORIGINATOR     = 

OBJECT_NAME    = COSMOS 2058
OBJECT_ID      = 1990-010A
CENTER_NAME    = EARTH
REF_FRAME      = TEME
TIME_SYSTEM    = UTC
MEAN_ELEMENT_THEORY = SGP/SGP4

EPOCH          = 2026-03-21T21:30:47.318400
MEAN_MOTION    = 15.11423579
ECCENTRICITY   = .00077373
INCLINATION    = 82.4680
RA_OF_ASC_NODE = 35.3989
ARG_OF_PERICENTER = 299.7173
MEAN_ANOMALY   = 60.3286

EPHEMERIS_TYPE = 0
CLASSIFICATION_TYPE = U
NORAD_CAT_ID   = 20465
ELEMENT_SET_NO = 999
REV_AT_EPOCH   = 94408
BSTAR          = .307496E-3
MEAN_MOTION_DOT = .5225E-4
MEAN_MOTION_DDOT = 0

CCSDS_OMM_VERS = 2.0
CREATION_DATE  = 
ORIGINATOR     = 

OBJECT_NAME    = SL-14 R/B
OBJECT_ID      = 1990-010B
CENTER_NAME    = EARTH
REF_FRAME      = TEME
TIME_SYSTEM    = UTC
MEAN_ELEMENT_THEORY = SGP/SGP4

EPOCH          = 2026-03-21T18:14:06.623232
MEAN_MOTION    = 14.83579385
ECCENTRICITY   = .00183519
INCLINATION    = 82.4988
RA_OF_ASC_NODE = 256.0473
ARG_OF_PERICENTER = 259.3819
MEAN_ANOMALY   = 100.5329

EPHEMERIS_TYPE = 0
CLASSIFICATION_TYPE = U
NORAD_CAT_ID   = 20466
ELEMENT_SET_NO = 999
REV_AT_EPOCH   = 93027
BSTAR          = .52901109E-4
MEAN_MOTION_DOT = .46E-5
MEAN_MOTION_DDOT = 0

CCSDS_OMM_VERS = 2.0
CREATION_DATE  = 
ORIGINATOR     = 

OBJECT_NAME    = SL-14 R/B
OBJECT_ID      = 1990-018B
CENTER_NAME    = EARTH
REF_FRAME      = TEME
TIME_SYSTEM    = UTC
MEAN_ELEMENT_THEORY = SGP/SGP4

EPOCH          = 2026-03-21T20:33:41.886720
MEAN_MOTION    = 14.82156974
ECCENTRICITY   = .00173703
INCLINATION    = 82.5225
RA_OF_ASC_NODE = 211.7186
ARG_OF_PERICENTER = 55.1007
MEAN_ANOMALY   = 305.1836

EPHEMERIS_TYPE = 0
CLASSIFICATION_TYPE = U
NORAD_CAT_ID   = 20511
ELEMENT_SET_NO = 999
REV_AT_EPOCH   = 92438
BSTAR          = .55993235E-4
MEAN_MOTION_DOT = .47E-5
MEAN_MOTION_DDOT = 0

CCSDS_OMM_VERS = 2.0
CREATION_DATE  = 
ORIGINATOR     = 

OBJECT_NAME    = HST
OBJECT_ID      = 1990-037B
CENTER_NAME    = EARTH
REF_FRAME      = TEME
TIME_SYSTEM    = UTC
MEAN_ELEMENT_THEORY = SGP/SGP4

EPOCH          = 2026-03-21T22:45:04.537152
MEAN_MOTION    = 15.29665795
ECCENTRICITY   = .00014973
INCLINATION    = 28.4725
RA_OF_ASC_NODE = 316.3669
ARG_OF_PERICENTER = 262.8571
MEAN_ANOMALY   = 97.1855

EPHEMERIS_TYPE = 0
CLASSIFICATION_TYPE = U
NORAD_CAT_ID   = 20580
ELEMENT_SET_NO = 999
REV_AT_EPOCH   = 77519
BSTAR          = .29688591E-3
MEAN_MOTION_DOT = .9017E-4
MEAN_MOTION_DDOT = 0

CCSDS_OMM_VERS = 2.0
CREATION_DATE  = 
ORIGINATOR     = 

OBJECT_NAME    = SL-16 R/B
OBJECT_ID      = 1990-046B
CENTER_NAME    = EARTH
REF_FRAME      = TEME
TIME_SYSTEM    = UTC
MEAN_ELEMENT_THEORY = SGP/SGP4

EPOCH          = 2026-03-21T22:14:43.018656
MEAN_MOTION    = 14.15012271
ECCENTRICITY   = .00162338
INCLINATION    = 70.9953
RA_OF_ASC_NODE = 272.2118
ARG_OF_PERICENTER = 283.5104
MEAN_ANOMALY   = 76.4210

EPHEMERIS_TYPE = 0
CLASSIFICATION_TYPE = U
NORAD_CAT_ID   = 20625
ELEMENT_SET_NO = 999
REV_AT_EPOCH   = 85012
BSTAR          = .79019347E-4
MEAN_MOTION_DOT = .105E-5
MEAN_MOTION_DDOT = 0

CCSDS_OMM_VERS = 2.0
CREATION_DATE  = 
ORIGINATOR     = 

OBJECT_NAME    = COSMOS 2084
OBJECT_ID      = 1990-055A
CENTER_NAME    = EARTH
REF_FRAME      = TEME
TIME_SYSTEM    = UTC
MEAN_ELEMENT_THEORY = SGP/SGP4

EPOCH          = 2026-03-21T22:36:23.730912
MEAN_MOTION    = 15.05713842
ECCENTRICITY   = .00151623
INCLINATION    = 62.7895
RA_OF_ASC_NODE = 293.7878
ARG_OF_PERICENTER = 193.5115
MEAN_ANOMALY   = 166.5582

EPHEMERIS_TYPE = 0
CLASSIFICATION_TYPE = U
NORAD_CAT_ID   = 20663
ELEMENT_SET_NO = 999
REV_AT_EPOCH   = 93816
BSTAR          = .196106E-3
MEAN_MOTION_DOT = .2654E-4
MEAN_MOTION_DDOT = 0

CCSDS_OMM_VERS = 2.0
CREATION_DATE  = 
ORIGINATOR     = 

OBJECT_NAME    = SL-6 R/B(2)
OBJECT_ID      = 1990-055D
CENTER_NAME    = EARTH
REF_FRAME      = TEME
TIME_SYSTEM    = UTC
MEAN_ELEMENT_THEORY = SGP/SGP4

EPOCH          = 2026-03-21T19:24:02.728224
MEAN_MOTION    = 15.03650957
ECCENTRICITY   = .00267754
INCLINATION    = 62.7832
RA_OF_ASC_NODE = 212.6362
ARG_OF_PERICENTER = 349.8961
MEAN_ANOMALY   = 10.1596

EPHEMERIS_TYPE = 0
CLASSIFICATION_TYPE = U
NORAD_CAT_ID   = 20666
ELEMENT_SET_NO = 999
REV_AT_EPOCH   = 94001
BSTAR          = .18717573E-3
MEAN_MOTION_DOT = .2392E-4
MEAN_MOTION_DDOT = 0

CCSDS_OMM_VERS = 2.0
CREATION_DATE  = 
ORIGINATOR     = 

OBJECT_NAME    = SL-8 R/B
OBJECT_ID      = 1990-078B
CENTER_NAME    = EARTH
REF_FRAME      = TEME
TIME_SYSTEM    = UTC
MEAN_ELEMENT_THEORY = SGP/SGP4

EPOCH          = 2026-03-21T22:30:42.242688
MEAN_MOTION    = 14.89435662
ECCENTRICITY   = .03597105
INCLINATION    = 82.9017
RA_OF_ASC_NODE = 240.2895
ARG_OF_PERICENTER = 332.7304
MEAN_ANOMALY   = 25.5415

EPHEMERIS_TYPE = 0
CLASSIFICATION_TYPE = U
NORAD_CAT_ID   = 20775
ELEMENT_SET_NO = 999
REV_AT_EPOCH   = 81112
BSTAR          = .54403381E-3
MEAN_MOTION_DOT = .18386E-3
MEAN_MOTION_DDOT = 0

CCSDS_OMM_VERS = 2.0
CREATION_DATE  = 
ORIGINATOR     = 

OBJECT_NAME    = SL-8 R/B
OBJECT_ID      = 1991-006B
CENTER_NAME    = EARTH
REF_FRAME      = TEME
TIME_SYSTEM    = UTC
MEAN_ELEMENT_THEORY = SGP/SGP4

EPOCH          = 2026-03-21T23:52:55.313760
MEAN_MOTION    = 13.77495959
ECCENTRICITY   = .00223087
INCLINATION    = 82.9457
RA_OF_ASC_NODE = 160.8979
ARG_OF_PERICENTER = 4.5191
MEAN_ANOMALY   = 168.2767

EPHEMERIS_TYPE = 0
CLASSIFICATION_TYPE = U
NORAD_CAT_ID   = 21088
ELEMENT_SET_NO = 999
REV_AT_EPOCH   = 76576
BSTAR          = .83964243E-4
MEAN_MOTION_DOT = .99E-6
MEAN_MOTION_DDOT = 0

CCSDS_OMM_VERS = 2.0
CREATION_DATE  = 
ORIGINATOR     = 

OBJECT_NAME    = OKEAN-3
OBJECT_ID      = 1991-039A
CENTER_NAME    = EARTH
REF_FRAME      = TEME
TIME_SYSTEM    = UTC
MEAN_ELEMENT_THEORY = SGP/SGP4

EPOCH          = 2026-03-21T21:55:55.879680
MEAN_MOTION    = 15.04880250
ECCENTRICITY   = .00126851
INCLINATION    = 82.5180
RA_OF_ASC_NODE = 325.0017
ARG_OF_PERICENTER = 291.3139
MEAN_ANOMALY   = 68.6733

EPHEMERIS_TYPE = 0
CLASSIFICATION_TYPE = U
NORAD_CAT_ID   = 21397
ELEMENT_SET_NO = 999
REV_AT_EPOCH   = 86687
BSTAR          = .18791993E-3
MEAN_MOTION_DOT = .2688E-4
MEAN_MOTION_DDOT = 0

CCSDS_OMM_VERS = 2.0
CREATION_DATE  = 
ORIGINATOR     = 

OBJECT_NAME    = COSMOS 2151
OBJECT_ID      = 1991-042A
CENTER_NAME    = EARTH
REF_FRAME      = TEME
TIME_SYSTEM    = UTC
MEAN_ELEMENT_THEORY = SGP/SGP4

EPOCH          = 2026-03-21T21:21:29.079360
MEAN_MOTION    = 15.00153148
ECCENTRICITY   = .00131319
INCLINATION    = 82.4937
RA_OF_ASC_NODE = 71.9035
ARG_OF_PERICENTER = 25.9853
MEAN_ANOMALY   = 334.2028

EPHEMERIS_TYPE = 0
CLASSIFICATION_TYPE = U
NORAD_CAT_ID   = 21422
ELEMENT_SET_NO = 999
REV_AT_EPOCH   = 86502
BSTAR          = .14284945E-3
MEAN_MOTION_DOT = .1812E-4
MEAN_MOTION_DDOT = 0

CCSDS_OMM_VERS = 2.0
CREATION_DATE  = 
ORIGINATOR     = 

OBJECT_NAME    = SL-14 R/B
OBJECT_ID      = 1991-042B
CENTER_NAME    = EARTH
REF_FRAME      = TEME
TIME_SYSTEM    = UTC
MEAN_ELEMENT_THEORY = SGP/SGP4

EPOCH          = 2026-03-21T20:16:32.054016
MEAN_MOTION    = 14.81841645
ECCENTRICITY   = .00166094
INCLINATION    = 82.4945
RA_OF_ASC_NODE = 208.7855
ARG_OF_PERICENTER = 196.5076
MEAN_ANOMALY   = 163.5600

EPHEMERIS_TYPE = 0
CLASSIFICATION_TYPE = U
NORAD_CAT_ID   = 21423
ELEMENT_SET_NO = 999
REV_AT_EPOCH   = 85487
BSTAR          = .58402369E-4
MEAN_MOTION_DOT = .486E-5
MEAN_MOTION_DDOT = 0

